{
  "fetched_at": "2026-04-20T02:41:16.153998+00:00",
  "satellites": {
    "57166": {
      "name": "Meteor M2-3",
      "tle_line1": "1 57166U 23091A   26109.85094094 -.00000018  00000+0  10874-4 0  9990",
      "tle_line2": "2 57166  98.6133 166.0083 0003638 358.1126   2.0039 14.24041662146215"
    },
    "59051": {
      "name": "Meteor M2-4",
      "tle_line1": "1 59051U 24039A   26109.86978656  .00000002  00000+0  20484-4 0  9994",
      "tle_line2": "2 59051  98.6968  69.9162 0006808 348.2979  11.8040 14.22423167110979"
    }
  }
}